{
  "type": "FeatureCollection",
  "features": [
    {
      "type": "Feature",
      "properties": {
        "norad_id": 29268,
        "name": "ARIRANG-2 (KOMPSAT-2)",
        "group": "resource",
        "lat": 81.5540080739231,
        "lon": 121.3677170671071,
        "alt_km": 680.3857751139813,
        "timestamp": "2025-12-27T11:23:19.533905+00:00",
        "meta_object_name": "ARIRANG-2 (KOMPSAT-2)",
        "meta_object_id": "2006-031A",
        "meta_epoch": "2025-12-27T05:00:57.316608",
        "meta_mean_motion": 14.64506841,
        "meta_eccentricity": 0.0013137,
        "meta_inclination": 97.8262,
        "meta_ra_of_asc_node": 188.9765,
        "meta_arg_of_pericenter": 259.3349,
        "meta_mean_anomaly": 228.4023,
        "meta_ephemeris_type": 0,
        "meta_classification_type": "U",
        "meta_norad_cat_id": 29268,
        "meta_element_set_no": 999,
        "meta_rev_at_epoch": 3630,
        "meta_bstar": 0.0001113,
        "meta_mean_motion_dot": 5.45e-06,
        "meta_mean_motion_ddot": 0,
        "tle_line1": "1 29268U 06031A   25361.20899672  .00000545  00000+0  11130-3 0  9999",
        "tle_line2": "2 29268  97.8262 188.9765 0013137 259.3349 228.4023 14.64506841 36309"
      },
      "geometry": {
        "type": "Point",
        "coordinates": [
          121.3677170671071,
          81.5540080739231
        ]
      }
    },
    {
      "type": "Feature",
      "properties": {
        "norad_id": 29709,
        "name": "LAPAN-TUBSAT",
        "group": "resource",
        "lat": 62.679483890058535,
        "lon": -24.123195902765897,
        "alt_km": 597.7224751539406,
        "timestamp": "2025-12-27T11:23:19.533916+00:00",
        "meta_object_name": "LAPAN-TUBSAT",
        "meta_object_id": "2007-001A",
        "meta_epoch": "2025-12-27T04:38:15.530784",
        "meta_mean_motion": 14.85691918,
        "meta_eccentricity": 0.0013039,
        "meta_inclination": 98.1268,
        "meta_ra_of_asc_node": 351.6477,
        "meta_arg_of_pericenter": 31.0443,
        "meta_mean_anomaly": 329.154,
        "meta_ephemeris_type": 0,
        "meta_classification_type": "U",
        "meta_norad_cat_id": 29709,
        "meta_element_set_no": 999,
        "meta_rev_at_epoch": 2561,
        "meta_bstar": 0.00011515,
        "meta_mean_motion_dot": 9.42e-06,
        "meta_mean_motion_ddot": 0,
        "tle_line1": "1 29709U 07001A   25361.19323531  .00000942  00000+0  11515-3 0  9999",
        "tle_line2": "2 29709  98.1268 351.6477 0013039  31.0443 329.1540 14.85691918 25617"
      },
      "geometry": {
        "type": "Point",
        "coordinates": [
          -24.123195902765897,
          62.679483890058535
        ]
      }
    },
    {
      "type": "Feature",
      "properties": {
        "norad_id": 31113,
        "name": "HAIYANG-1B",
        "group": "resource",
        "lat": -67.69253521611319,
        "lon": 6.075673118156465,
        "alt_km": 791.5939132410667,
        "timestamp": "2025-12-27T11:23:19.533927+00:00",
        "meta_object_name": "HAIYANG-1B",
        "meta_object_id": "2007-010A",
        "meta_epoch": "2025-12-26T22:17:09.432096",
        "meta_mean_motion": 14.30969835,
        "meta_eccentricity": 0.0013492,
        "meta_inclination": 98.3331,
        "meta_ra_of_asc_node": 344.6215,
        "meta_arg_of_pericenter": 357.1772,
        "meta_mean_anomaly": 2.9334,
        "meta_ephemeris_type": 0,
        "meta_classification_type": "U",
        "meta_norad_cat_id": 31113,
        "meta_element_set_no": 999,
        "meta_rev_at_epoch": 97599,
        "meta_bstar": 7.6749e-05,
        "meta_mean_motion_dot": 1.6e-06,
        "meta_mean_motion_ddot": 0,
        "tle_line1": "1 31113U 07010A   25360.92858139  .00000160  00000+0  76749-4 0  9991",
        "tle_line2": "2 31113  98.3331 344.6215 0013492 357.1772   2.9334 14.30969835975992"
      },
      "geometry": {
        "type": "Point",
        "coordinates": [
          6.075673118156465,
          -67.69253521611319
        ]
      }
    },
    {
      "type": "Feature",
      "properties": {
        "norad_id": 31598,
        "name": "COSMO-SKYMED 1",
        "group": "resource",
        "lat": -16.556295717596196,
        "lon": 4.61019411991842,
        "alt_km": 584.9619912677881,
        "timestamp": "2025-12-27T11:23:19.533938+00:00",
        "meta_object_name": "COSMO-SKYMED 1",
        "meta_object_id": "2007-023A",
        "meta_epoch": "2025-12-27T04:05:27.816576",
        "meta_mean_motion": 14.95872195,
        "meta_eccentricity": 0.0001106,
        "meta_inclination": 97.8838,
        "meta_ra_of_asc_node": 186.6651,
        "meta_arg_of_pericenter": 77.7312,
        "meta_mean_anomaly": 282.4032,
        "meta_ephemeris_type": 0,
        "meta_classification_type": "U",
        "meta_norad_cat_id": 31598,
        "meta_element_set_no": 999,
        "meta_rev_at_epoch": 406,
        "meta_bstar": 0.00035923,
        "meta_mean_motion_dot": 3.957e-05,
        "meta_mean_motion_ddot": 0,
        "tle_line1": "1 31598U 07023A   25361.17046084  .00003957  00000+0  35923-3 0  9993",
        "tle_line2": "2 31598  97.8838 186.6651 0001106  77.7312 282.4032 14.95872195  4061"
      },
      "geometry": {
        "type": "Point",
        "coordinates": [
          4.61019411991842,
          -16.556295717596196
        ]
      }
    },
    {
      "type": "Feature",
      "properties": {
        "norad_id": 31698,
        "name": "TERRASAR-X",
        "group": "resource",
        "lat": 7.56297268734874,
        "lon": 5.644915160389933,
        "alt_km": 509.98329399091017,
        "timestamp": "2025-12-27T11:23:19.533949+00:00",
        "meta_object_name": "TERRASAR-X",
        "meta_object_id": "2007-026A",
        "meta_epoch": "2025-12-26T13:13:25.268160",
        "meta_mean_motion": 15.19159007,
        "meta_eccentricity": 0.0001831,
        "meta_inclination": 97.4449,
        "meta_ra_of_asc_node": 5.7296,
        "meta_arg_of_pericenter": 80.7089,
        "meta_mean_anomaly": 279.4352,
        "meta_ephemeris_type": 0,
        "meta_classification_type": "U",
        "meta_norad_cat_id": 31698,
        "meta_element_set_no": 999,
        "meta_rev_at_epoch": 2701,
        "meta_bstar": 7.4512e-05,
        "meta_mean_motion_dot": 1.498e-05,
        "meta_mean_motion_ddot": 0,
        "tle_line1": "1 31698U 07026A   25360.55098690  .00001498  00000+0  74512-4 0  9994",
        "tle_line2": "2 31698  97.4449   5.7296 0001831  80.7089 279.4352 15.19159007 27010"
      },
      "geometry": {
        "type": "Point",
        "coordinates": [
          5.644915160389933,
          7.56297268734874
        ]
      }
    },
    {
      "type": "Feature",
      "properties": {
        "norad_id": 32060,
        "name": "WORLDVIEW-1 (WV-1)",
        "group": "resource",
        "lat": -75.4237294207745,
        "lon": 148.64202642240235,
        "alt_km": 500.1909019207442,
        "timestamp": "2025-12-27T11:23:19.533959+00:00",
        "meta_object_name": "WORLDVIEW-1 (WV-1)",
        "meta_object_id": "2007-041A",
        "meta_epoch": "2025-12-26T21:32:43.566144",
        "meta_mean_motion": 15.23990387,
        "meta_eccentricity": 0.0003026,
        "meta_inclination": 97.3817,
        "meta_ra_of_asc_node": 118.1698,
        "meta_arg_of_pericenter": 347.9246,
        "meta_mean_anomaly": 12.1918,
        "meta_ephemeris_type": 0,
        "meta_classification_type": "U",
        "meta_norad_cat_id": 32060,
        "meta_element_set_no": 999,
        "meta_rev_at_epoch": 1663,
        "meta_bstar": 0.00039987,
        "meta_mean_motion_dot": 9.617e-05,
        "meta_mean_motion_ddot": 0,
        "tle_line1": "1 32060U 07041A   25360.89772646  .00009617  00000+0  39987-3 0  9999",
        "tle_line2": "2 32060  97.3817 118.1698 0003026 347.9246  12.1918 15.23990387 16633"
      },
      "geometry": {
        "type": "Point",
        "coordinates": [
          148.64202642240235,
          -75.4237294207745
        ]
      }
    },
    {
      "type": "Feature",
      "properties": {
        "norad_id": 32289,
        "name": "YAOGAN-3",
        "group": "resource",
        "lat": 81.91828045492814,
        "lon": -76.1415343542834,
        "alt_km": 589.8858057692423,
        "timestamp": "2025-12-27T11:23:19.533970+00:00",
        "meta_object_name": "YAOGAN-3",
        "meta_object_id": "2007-055A",
        "meta_epoch": "2025-12-27T04:31:49.500768",
        "meta_mean_motion": 14.89927877,
        "meta_eccentricity": 0.0001179,
        "meta_inclination": 97.8358,
        "meta_ra_of_asc_node": 27.6827,
        "meta_arg_of_pericenter": 83.5707,
        "meta_mean_anomaly": 276.5645,
        "meta_ephemeris_type": 0,
        "meta_classification_type": "U",
        "meta_norad_cat_id": 32289,
        "meta_element_set_no": 999,
        "meta_rev_at_epoch": 98024,
        "meta_bstar": 0.00019376,
        "meta_mean_motion_dot": 1.809e-05,
        "meta_mean_motion_ddot": 0,
        "tle_line1": "1 32289U 07055A   25361.18876737  .00001809  00000+0  19376-3 0  9991",
        "tle_line2": "2 32289  97.8358  27.6827 0001179  83.5707 276.5645 14.89927877980246"
      },
      "geometry": {
        "type": "Point",
        "coordinates": [
          -76.1415343542834,
          81.91828045492814
        ]
      }
    }
  ]
}